ONEWEB-0504             
1 54122U 22138K   25064.65631147  .00000054  00000+0  10278-3 0  9999
2 54122  87.9188  38.0809 0002137  92.6931 267.4447 13.19724033115901
ONEWEB-0505             
1 54123U 22138L   25064.65315366  .00000092  00000+0  19869-3 0  9999
2 54123  87.9187  38.0730 0002491  91.7588 268.3830 13.19724386115889
ONEWEB-0506             
1 54124U 22138M   25064.85532597  .00000081  00000+0  17105-3 0  9998
2 54124  87.9188  38.0295 0002098  86.1048 274.0324 13.19724187115903
ONEWEB-0507             
1 54125U 22138N   25064.64841343  .00000120  00000+0  26767-3 0  9996
2 54125  87.9195  38.1140 0002156  84.0981 276.0398 13.19725547115926
ONEWEB-0508             
1 54126U 22138P   25064.64525425  .00000160  00000+0  36652-3 0  9995
2 54126  87.9194  38.1006 0002380  83.4321 276.7083 13.19724534115908
ONEWEB-0509             
1 54127U 22138Q   25064.84743057  .00000055  00000+0  10598-3 0  9995
2 54127  87.9186  38.0296 0002053  85.3168 274.8199 13.19725263115904
ONEWEB-0510             
1 54128U 22138R   25064.80301890  .00000022  00000+0  22390-4 0  9995
2 54128  87.9325   7.6417 0001791  72.5120 287.6209 13.20771489118350
ONEWEB-0511             
1 54129U 22138S   25064.84427227  .00000058  00000+0  11214-3 0  9994
2 54129  87.9186  38.0353 0001867  95.0213 265.1133 13.19725511115931
